KUIPER-00074            
1 64821U 25151F   25210.87049767  .00022838  00000+0  66154-3 0  9990
2 64821  51.8770 222.0327 0005262 194.4698 165.6138 15.35461306  2089
KUIPER-00075            
1 64822U 25151G   25211.19517276  .00012154  00000+0  35722-3 0  9999
2 64822  51.8781 220.4668 0004950 186.3914 173.7010 15.35504832  2133
KUIPER-00076            
1 64823U 25151H   25210.87126765  .00022368  00000+0  65090-3 0  9992
2 64823  51.8770 222.0379 0004984 194.7256 165.3586 15.35331479  2082
KUIPER-00077            
1 64824U 25151J   25211.19835333  .00011769  00000+0  34997-3 0  9992
2 64824  51.8784 220.4868 0005478 202.4583 157.6164 15.35166656  2126
KUIPER-00078            
1 64825U 25151K   25211.19806165  .00012519  00000+0  37107-3 0  9994
2 64825  51.8776 220.4814 0005607 205.3532 154.7179 15.35204463  2133
KUIPER-00079            
1 64826U 25151L   25210.86711934  .00022818  00000+0  65265-3 0  9996
2 64826  51.8775 222.0145 0005998 179.4216 180.6778 15.35855970  3286
KUIPER-00080            
1 64827U 25151M   25211.19505711  .00013464  00000+0  39371-3 0  9994
2 64827  51.8779 220.4655 0004907 190.2649 169.8238 15.35565157  2137
KUIPER-00082            
1 64828U 25151N   25211.19408417  .00013283  00000+0  38734-3 0  9991
2 64828  51.8772 220.4542 0005344 185.8073 174.2852 15.35663941  2135
KUIPER-00083            
1 64829U 25151P   25210.87172293  .00280657  00000+0  76925-2 0  9990
2 64829  51.8772 222.0415 0006051 231.9858 128.0582 15.35640856  3276
KUIPER-00084            
1 64830U 25151Q   25211.16670139 -.00647790  00000+0 -21631-1 0  9997
2 64830  51.8787 220.6558 0005971 205.4776 327.8541 15.32796574  2124
KUIPER-00085            
1 64831U 25151R   25211.19274384  .00019051  00000+0  54757-3 0  9991
2 64831  51.8775 220.4469 0005819 181.6234 178.4734 15.35823156  2131
KUIPER-00086            
1 64832U 25151S   25210.87309701  .00018978  00000+0  55818-3 0  9994
2 64832  51.8777 222.0508 0005396 204.6376 155.4353 15.35102926  2080
KUIPER-00087            
1 64833U 25151T   25211.19460506  .00013145  00000+0  38505-3 0  9997
2 64833  51.8776 220.4618 0005284 182.6383 177.4576 15.35531448  2135
KUIPER-00089            
1 64834U 25151U   25211.19720648  .00028514  00000+0  82682-3 0  9995
2 64834  51.8782 220.4794 0005475 200.5481 159.5285 15.35300389  2135
KUIPER-00090            
1 64835U 25151V   25211.19931500  .00011424  00000+0  34114-3 0  9996
2 64835  51.8780 220.4911 0005721 210.6915 149.3737 15.35064348  2123
KUIPER-00091            
1 64836U 25151W   25211.19323044  .00023099  00000+0  66287-3 0  9992
2 64836  51.8771 220.4486 0005894 182.6617 177.4339 15.35745227  2132
KUIPER-00092            
1 64837U 25151X   25210.86972420  .00020616  00000+0  59710-3 0  9999
2 64837  51.8772 222.0278 0005568 189.6047 170.4833 15.35529317  3293
KUIPER-00093            
1 64838U 25151Y   25210.87165517  .00022916  00000+0  66702-3 0  9996
2 64838  51.8783 222.0470 0005269 194.8367 165.2465 15.35307410  2088
KUIPER-00094            
1 64839U 25151Z   25210.86934234  .00024718  00000+0  71195-3 0  9990
2 64839  51.8771 222.0260 0005298 187.8125 172.2779 15.35591810  2084
